Index,Nom,Adresse,Localitée,Full Address,Latitude,Longitude,Telephone,FAX,URL,email
1,"5 DE COEUR, CAT",Place de la Croix-Blanche 3,1066 Epalinges,Place de la Croix-Blanche 3 1066 Epalinges ,46.5479619,6.6708583,Tél: 021 784 10 54,Fax: 021 784 10 54,https://www.heviva.ch/institutions/detail/ems/5-de-coeur-cat.html,cat.epalinges@montcalme.ch
2,ALEXANDRA CPSE,CHP Alexandra. Route Fin-du-Craux 47,1822 Chernex,CHP Alexandra. Route Fin-du-Craux 47 1822 Chernex ,46.44608,6.9090212,Tél: 021 964 32 78,Fax: 021 964 32 55,https://www.heviva.ch/institutions/detail/ems/alexandra-cpse.html,chp@cpsealexandra.ch
3,"AUBEPINES, EMS LES",Chemin des Aubépines 4,1004 Lausanne,Chemin des Aubépines 4 1004 Lausanne ,46.5272756,6.6212845,Tél: 021 648 44 11,Fax: 021 648 43 30,https://www.heviva.ch/institutions/detail/ems/aubepines-ems-les.html,caffaro.direction@sispsa.ch
4,"AUBONNE, CAT Mémoire",Rue Trévelin 67,1170 Aubonne,Rue Trévelin 67 1170 Aubonne ,46.4917243,6.3887023,Tél: 079 172 84 51,Fax: 021 821 41 14,https://www.heviva.ch/institutions/detail/ems/aubonne-cat-de-lhopital-d.html,cat.aubonne@ehc.vd.ch
5,"BAUMETTES, CAT de l'EMS les",Avenue des Baumettes 120,1020 Renens,Avenue des Baumettes 120 1020 Renens ,46.5417611,6.5898009,Tél: 021 637 55 55,Fax: 021 637 55 66,https://www.heviva.ch/institutions/detail/ems/baumettes-cat-de-lems-les.html,baumettes@baumettes.ch
6,"BAUMETTES, CS de l'EMS les",Avenue des Baumettes 120,1020 Renens,Avenue des Baumettes 120 1020 Renens ,46.5417611,6.5898009,Tél: 021 637 55 55,Fax: 021 637 55 66,https://www.heviva.ch/institutions/detail/ems/baumettes-cs-de-lems-les.html,baumettes@baumettes.ch
7,"BAUMETTES, EMS LES",Avenue des Baumettes 120,1020 Renens,Avenue des Baumettes 120 1020 Renens ,46.5417611,6.5898009,Tél: 021 637 55 55,Fax: 021 637 55 66,https://www.heviva.ch/institutions/detail/ems/baumettes-ems-les.html,baumettes@baumettes.ch
8,"BAUMETTES, LP de la Fondation les",Chemin d'Eterpy 2/4,1020 Renens,Chemin d'Eterpy 2/4 1020 Renens ,46.5413183,6.5887885,Tél: 021 637 55 55,Fax: 021 637 55 66,https://www.heviva.ch/institutions/detail/ems/baumettes-lp-de-la-fondation-les.html,baumettes@baumettes.ch
9,"BEAU-SEJOUR, CS de l'EMS",Rue des Communaux 2,1800 Vevey,Rue des Communaux 2 1800 Vevey ,46.4603289,6.8494105,Tél: 021 925 90 00,Fax: 021 925 90 09,https://www.heviva.ch/institutions/detail/ems/beau-sejour-cs-de-lems.html,fondation@fondationbeausejour.ch
10,"BEAU-SEJOUR, EMS",Rue des Communaux 2,1800 Vevey,Rue des Communaux 2 1800 Vevey ,46.4603289,6.8494105,Tél: 021 925 90 00,Fax: 021 925 90 09,https://www.heviva.ch/institutions/detail/ems/beau-sejour-ems.html,fondation@fondationbeausejour.ch
11,"BEAU-SITE, EMS",Chemin du Crépon 32,1815 Clarens,Chemin du Crépon 32 1815 Clarens ,46.4486509,6.8942485,Tél: 021 989 53 99,Fax: 021 989 53 50,https://www.heviva.ch/institutions/detail/ems/beau-site-ems.html,direction@ems-fbs.ch
12,"BEAUSOBRE, LP de la Résidence de",Avenue de Vertou 6,1110 Morges,Avenue de Vertou 6 1110 Morges ,46.5161999,6.4978319,Tél: 021 694 30 20,,https://www.heviva.ch/institutions/detail/ems/beausobre-lp-de-la-residence-de.html,info@alterimo.ch
13,"BELLEVUE, CAT de l'EMS",Route de Burtigny 11,1268 Begnins,Route de Burtigny 11 1268 Begnins ,46.4426107,6.2457694,Tél: 022 366 61 11,,https://www.heviva.ch/institutions/detail/ems/bellevue-cat-de-lems.html,info@bellesaison.ch
14,"BERGES DU LEMAN, EMS LES","Boulevard Henri-Plumhof 3, Case postale 192",1800 Vevey 1,"Boulevard Henri-Plumhof 3, Case postale 192 1800 Vevey 1 ",46.4631396,6.8541941,Tél: 021 925 56 56,,https://www.heviva.ch/institutions/detail/ems/berges-du-leman-ems-les.html,admin@fcm63.ch
15,"BETHANIE, CS de l'institution",Avenue de la Vallombreuse 34,1004 Lausanne,Avenue de la Vallombreuse 34 1004 Lausanne ,46.5344364,6.6141635,Tél: 021 641 71 50,Fax: 021 641 72 72,https://www.heviva.ch/institutions/detail/ems/bethanie-cs-de-linstitution.html,info@bethanie.ch
16,"BETHANIE, INSTITUTION DE",Avenue de la Vallombreuse 34,1004 Lausanne,Avenue de la Vallombreuse 34 1004 Lausanne ,46.5344364,6.6141635,Tél: 021 641 71 50,Fax: 021 641 72 72,https://www.heviva.ch/institutions/detail/ems/bethanie-institution-de.html,info@bethanie.ch
17,"BETHANIE, LP de la Résidence de",Avenue de la Vallombreuse 32,1004 Lausanne,Avenue de la Vallombreuse 32 1004 Lausanne ,46.5339261,6.6141577,Tél: 021 641 71 50,,https://www.heviva.ch/institutions/detail/ems/bethanie-lp-de-la-residence-de.html,f.risse@bethanie.ch
18,"BETHEL, CS",Chemin de Lacuez 4,1807 Blonay,Chemin de Lacuez 4 1807 Blonay ,46.4668936,6.8889441,Tél: 021 925 50 48,Fax: 021 925 50 41,https://www.heviva.ch/institutions/detail/ems/bethel-cs.html,info@maison-bethel.ch
19,"BOIS GENTIL, SITE DU PETIT FLON, EMS",Chemin du Petit Flon 49,1018 Lausanne,Chemin du Petit Flon 49 1018 Lausanne ,46.5423604,6.6248241,Tél: 021 512 32 00,,https://www.heviva.ch/institutions/detail/ems/bois-gentil-site-du-petit-flon-ems.html,info@fbg.ch
20,"BOIS-GENTIL, SITE DE SAUVABELIN, EMS",Route du Pavement 20,1018 Lausanne,Route du Pavement 20 1018 Lausanne ,46.5321025,6.6358499,Tél: 021 512 34 00,,https://www.heviva.ch/institutions/detail/ems/bois-gentil-site-de-sauvabelin-ems.html,info@fbg.ch
21,"BORDE, FOYER DE LA",Rue de la Borde 59,1018 Lausanne,Rue de la Borde 59 1018 Lausanne ,46.5318985,6.6298619,Tél: 021 642 74 74,Fax: 021 642 74 70,https://www.heviva.ch/institutions/detail/ems/borde-foyer-de-la.html,caffaro.direction@sispsa.ch
22,"BURIER, MAISON DE RETRAITE",Avenue des Bosquets de Julie 67,1815 Clarens,Avenue des Bosquets de Julie 67 1815 Clarens ,46.4478684,6.880918,Tél: 021 989 23 23,Fax: 021 989 23 24,https://www.heviva.ch/institutions/detail/ems/burier-maison-de-retraite.html,info@emsburier.ch
23,CAT LA MENTHUE,Chemin de Pardine 2,1462 Yvonand,Chemin de Pardine 2 1462 Yvonand ,46.7956727,6.7488348,Tél: 024 430 10 15,,https://www.heviva.ch/institutions/detail/ems/menthue-cat-la.html,lamenthue@fondation-saphir.ch
24,CAT LE VERGER,Chemin de la Magnenette 2,1350 Orbe,Chemin de la Magnenette 2 1350 Orbe ,46.7291557,6.5333125,Tél: 024 442 61 53,,https://www.heviva.ch/institutions/detail/ems/verger-cat-le.html,leverger@fondation-saphir.ch
25,CAT LES SOURCES,Route de Bellevue 57,1400 Yverdon,Route de Bellevue 57 1400 Yverdon ,46.7738589,6.6635141,Tél: 024 426 06 96,,https://www.heviva.ch/institutions/detail/ems/sources-cat-les.html,lessources@fondation-saphir.ch
26,CAT MANUREVA,"Village 52 SA, Av. de Grandson 48 - CP 1349",1401 Yverdon-les-Bains,"Village 52 SA, Av. de Grandson 48 - CP 1349 1401 Yverdon-les-Bains ",46.7880936,6.6309683,Tél: 024 425 94 46,,https://www.heviva.ch/institutions/detail/ems/manureva-cat.html,manureva@fondation-saphir.ch
27,CAT TURQUOISE,Route de l'Ancienne-Poste 42,1337 Vallorbe,Route de l'Ancienne-Poste 42 1337 Vallorbe ,46.7126758,6.3790863,Tél: 021 843 00 09,,https://www.heviva.ch/institutions/detail/ems/turquoise-cat.html,turquoise@fondation-saphir.ch
28,"CERISIERS, EMS LES",Rue des Cerisiers 15,1530 Payerne,Rue des Cerisiers 15 1530 Payerne ,46.8185366,6.9448946,Tél: 026 662 89 11,Fax: 026 662 81 01,https://www.heviva.ch/institutions/detail/ems/cerisiers-ems-les.html,jeanluc.sapin@hibroye.ch
29,"CHAMP-FLEURI, EPSM",Route de Champ-Fleuri 8,1823 Glion,Route de Champ-Fleuri 8 1823 Glion ,46.434297,6.9257384,Tél: 021 966 05 40,Fax: 021 966 05 41,https://www.heviva.ch/institutions/detail/ems/champ-fleuri-epsm.html,secretariat@champ-fleur.ch
30,"CHAMP-FLEURI, EPSM",Route de Champ-Fleuri 8,1823 Glion,Route de Champ-Fleuri 8 1823 Glion ,46.434297,6.9257384,Tél: 021 966 05 40,Fax: 021 966 05 41,https://www.heviva.ch/institutions/detail/ems/champ-fleuri-lp-de-lems.html,secretariat@champ-fleuri.ch
31,"CHANELLA, EPSM",Chemin de Chanella 14,1658 Rossinière,Chemin de Chanella 14 1658 Rossinière ,46.4671042,7.0828407,Tél: 026 924 20 40,Fax: 026 924 20 49,https://www.heviva.ch/institutions/detail/ems/chanella-epsm.html,info@cogestems.ch
32,"CHATEAU DE CORCELLES, EMS LE",Clos du Château 3,1426 Corcelles-près-Concise,Clos du Château 3 1426 Corcelles-près-Concise ,46.8457843,6.7070629,Tél: 024 434 62 30,Fax: 024 434 62 37,https://www.heviva.ch/institutions/detail/ems/chateau-de-corcelles-ems-le.html,direction@chateaucorcelles.ch
33,"CHATEAU DE FECHY, CS",Chemin de la Crausaz 1,1173 Féchy,Chemin de la Crausaz 1 1173 Féchy ,46.4795605,6.3710172,Tél: 021 805 03 60,Fax: 021 805 03 69,https://www.heviva.ch/institutions/detail/ems/chateau-de-fechy-cs.html,info@fondationsilo.ch
34,"CHATEAU DE FECHY, HNM",Chemin de la Crausaz 1,1173 Féchy,Chemin de la Crausaz 1 1173 Féchy ,46.4795605,6.3710172,Tél: 021 805 03 60,Fax: 021 805 03 69,https://www.heviva.ch/institutions/detail/ems/chateau-de-fechy-hnm.html,info@fondationsilo.ch
35,"CHATEAU DES NOVALLES, EMS",Chemin du Paradis 1,1807 Blonay,Chemin du Paradis 1 1807 Blonay ,46.4626214,6.8814872,Tél: 021 943 08 00,Fax: 021 943 08 99,https://www.heviva.ch/institutions/detail/ems/chateau-des-novalles-ems.html,info@chateaunovalles.ch
36,"CHATEAUX LES, SITE D'ECHALLENS",Route d'Orbe 4,1040 Echallens,Route d'Orbe 4 1040 Echallens ,46.6418928,6.6311981,Tél: 021 886 36 36,Fax: 021 886 36 35,https://www.heviva.ch/institutions/detail/ems/chateaux-les-site-dechallens.html,info@leschateaux.org
37,"CHATEAUX LES, SITE DE GOUMOENS LA VILLE",Rue du Château 5,1376 Goumoens-la-Ville,Rue du Château 5 1376 Goumoens-la-Ville ,46.6571924,6.6046035,Tél: 021 886 35 35,Fax: 021 886 35 34,https://www.heviva.ch/institutions/detail/ems/chateaux-les-site-de-goumoens-la-ville.html,info@leschateaux.org
38,"CHOCOLATIERE, CS",Rue de la Chocolatière 30,1026 Echandens,Rue de la Chocolatière 30 1026 Echandens ,46.542547,6.549568,Tél: 058 748 85 30,Fax: 058 748 85 99,https://www.heviva.ch/institutions/detail/ems/chocolatiere-cs.html,sandrine.heuls@altage.ch
39,"CHOCOLATIERE, EMS La",Rue de la Chocolatière 30,1026 Echandens,Rue de la Chocolatière 30 1026 Echandens ,46.542547,6.549568,Tél: 058 748 85 30,Fax: 058 748 85 99,https://www.heviva.ch/institutions/detail/ems/chocolatiere-ems-la.html,sandrine.heuls@altage.ch
40,"CITE DE LA BORDE, LP La",Rue de la Borde 38,1018 Lausanne,Rue de la Borde 38 1018 Lausanne ,46.5317443,6.6310062,Tél: 021 641 62 00,Fax: 021 641 62 49,https://www.heviva.ch/institutions/detail/ems/cite-de-la-borde-lp-la.html,ems@fdorme.ch
41,"CITE, LP de la Résidence La",Rue du Simplon 26,1800 Vevey,Rue du Simplon 26 1800 Vevey ,46.4602425,6.8452032,Tél: 021 925 90 00,Fax: 021 925 90 09,https://www.heviva.ch/institutions/detail/ems/cite-lp-de-la-residence-la.html,fondation@fondationbeausejour.ch
42,"CLAIR VULLY, CAT de l'EMS","case postale 60, Rue des Savoies 1",1585 Salavaux,"case postale 60, Rue des Savoies 1 1585 Salavaux ",46.9155412,7.0233172,Tél: 026 677 88 00,Fax: 026 677 88 99,https://www.heviva.ch/institutions/detail/ems/clair-vully-cat-de-lems.html,info@clairvully.ch
43,"CLAIR VULLY, CS de l'EMS","case postale 60, Rue des Savoies 1",1585 Salavaux,"case postale 60, Rue des Savoies 1 1585 Salavaux ",46.9155412,7.0233172,Tél: 026 677 88 00,Fax: 026 677 88 99,https://www.heviva.ch/institutions/detail/ems/clair-vully-cs-de-lems.html,info@clairvully.ch
44,"CLAIR VULLY, EMS","case postale 60, Rue des Savoies 1",1585 Salavaux,"case postale 60, Rue des Savoies 1 1585 Salavaux ",46.9155412,7.0233172,Tél: 026 677 88 00,Fax: 026 677 88 99,https://www.heviva.ch/institutions/detail/ems/clair-vully-ems.html,info@clairvully.ch
45,"CLAIR-SOLEIL, EMS",Route de la Pierre 7,1024 Ecublens,Route de la Pierre 7 1024 Ecublens ,46.5299125,6.5577137,Tél: 021 694 22 22,Fax: 021 694 22 10,https://www.heviva.ch/institutions/detail/ems/clair-soleil-ems.html,ems.clairsoleil@fa2.ch
46,"CLAIRIERE, CAT de la Fondation la",Route de St-Cergue 11,1295 Mies,Route de St-Cergue 11 1295 Mies ,46.308662,6.17124,Tél: 022 950 80 24,Fax: 022 950 80 18,https://www.heviva.ch/institutions/detail/ems/clairiere-cat-de-la-fondation-la.html,respcat@laclairiere.ch
47,"CLAIRIERE, CS de la Fondation la",Route de St-Cergue 11,1295 Mies,Route de St-Cergue 11 1295 Mies ,46.308662,6.17124,Tél: 022 950 80 00,Fax: 022 950 80 18,https://www.heviva.ch/institutions/detail/ems/clairiere-cs-de-la-fondation-la.html,info@laclairiere.ch
48,"CLAIRIERE, FONDATION LA",Route de Saint-Cergue 11,1295 Mies,Route de Saint-Cergue 11 1295 Mies ,46.308662,6.17124,Tél: 022 950 80 00,Fax: 022 950 80 18,https://www.heviva.ch/institutions/detail/ems/clairiere-fondation-la.html,info@laclairiere.ch
49,"CLAIRIERE, LP de la Fondation La",Route de St-Cergue 11,1295 Mies,Route de St-Cergue 11 1295 Mies ,46.308662,6.17124,Tél: 022 950 80 00,Fax: 022 950 80 18,https://www.heviva.ch/institutions/detail/ems/clairiere-lp-de-la-fondation-la.html,info@laclairiere.ch
50,"CLE DES CHAMPS, CS de l'EMS",Route du Signal 6,1185 Mont-sur-Rolle,Route du Signal 6 1185 Mont-sur-Rolle ,46.4881478,6.3536515,Tél: 021 822 52 52,,https://www.heviva.ch/institutions/detail/ems/cle-des-champs-cs-de-lems.html,info@bellesaison.ch
51,"CLEF DES CHAMPS, CAT de l'EMS",Route du Signal 6,1185 Mont-sur-Rolle,Route du Signal 6 1185 Mont-sur-Rolle ,46.4881478,6.3536515,Tél: 021 822 52 52,,https://www.heviva.ch/institutions/detail/ems/clef-des-champs-cat-de-lems.html,info@bellesaison.ch
52,"CLEF DES CHAMPS, EMS",Route du Signal 6,1185 Mont-sur-Rolle,Route du Signal 6 1185 Mont-sur-Rolle ,46.4881478,6.3536515,Tél: 021 822 52 52,Fax: 021 822 52 53,https://www.heviva.ch/institutions/detail/ems/clef-des-champs-ems.html,info@bellesaison.ch
53,"CLEMENCE, CAT de la Fondation la",Avenue de Morges 64,1004 Lausanne,Avenue de Morges 64 1004 Lausanne ,46.5269465,6.6100038,Tél: 021 620 72 46,Fax: 021 620 72 00,https://www.heviva.ch/institutions/detail/ems/clemence-cat-de-la-fondation-la.html,cat@fondation-clemence.ch
54,"CLEMENCE, CS de la Fondation",Avenue de Morges 64,1004 Lausanne,Avenue de Morges 64 1004 Lausanne ,46.5269465,6.6100038,Tél: 021 620 72 72,Fax: 021 620 72 44,https://www.heviva.ch/institutions/detail/ems/clemence-cs-de-la-fondation.html,fondation-clemence@fondation-clemence.ch
55,"CLEMENCE, FONDATION",Avenue de Morges 64,1004 Lausanne,Avenue de Morges 64 1004 Lausanne ,46.5269465,6.6100038,Tél: 021 620 72 72,Fax: 021 620 72 00,https://www.heviva.ch/institutions/detail/ems/clemence-fondation.html,clemence@fondation-clemence.ch
56,"CLEMENCE, LP de la Fondation",Avenue de Morges 64C,1004 Lausanne,Avenue de Morges 64C 1004 Lausanne ,46.5267637,6.6094385,Tél: 021 620 72 72,Fax: 021 620 72 70,https://www.heviva.ch/institutions/detail/ems/clemence-lp-de-la-fondation.html,fondation-clemence@fondation-clemence.ch
57,"CLOS DES TZAMS, HNM",Route des Blanchettes 30,1660 L'Etivaz,Route des Blanchettes 30 1660 L'Etivaz ,46.4250956,7.1460006,Tél: 026 924 49 46,Fax: 026 924 49 45,https://www.heviva.ch/institutions/detail/ems/clos-des-tzams-hnm.html,info@cogestems.ch
58,"COLLINE, CAT de l'EMS La",Chemin de Baulet 20,1071 Chexbres,Chemin de Baulet 20 1071 Chexbres ,46.4798962,6.7769862,Tél: 021 946 01 01,Fax: 021 946 01 99,https://www.heviva.ch/institutions/detail/ems/colline-cat-de-lems-la.html,info@emslacolline.org
59,"COLLINE, EMS LA",Chemin de Baulet 20,1071 Chexbres,Chemin de Baulet 20 1071 Chexbres ,46.4798962,6.7769862,Tél: 021 946 01 01,,https://www.heviva.ch/institutions/detail/ems/colline-ems-la.html,info@emslacolline.org
60,COLOCATION RUBIS,"Résidence Agate, Route de Bellevue 57, CP 574",1401 Yverdon-les-Bains,"Résidence Agate, Route de Bellevue 57, CP 574 1401 Yverdon-les-Bains ",46.7738589,6.6635141,Tél: 024 426 10 01,,https://www.heviva.ch/institutions/detail/ems/rubis-colocation.html,rubis@fondation-saphir.ch
61,COLOCATION TOPAZE,"Résidence St-Martin, Chemin des Rigoles 14B",1350 Orbe,"Résidence St-Martin, Chemin des Rigoles 14B 1350 Orbe ",46.7219586,6.5358571,Tél: 024 441 61 67,,https://www.heviva.ch/institutions/detail/ems/topaze-colocation.html,topaze@fondation-saphir.ch
62,"COLOMBES, EMS LES",Avenue de Collonges 1,1004 Lausanne,Avenue de Collonges 1 1004 Lausanne ,46.5273694,6.6216527,Tél: 021 647 50 68,Fax: 021 647 50 67,https://www.heviva.ch/institutions/detail/ems/colombes-ems-les.html,caffaro.direction@sispsa.ch
63,"COLOMBIERE, EPSM LA",Route du Village 51,1513 Hermenches,Route du Village 51 1513 Hermenches ,46.6402823,6.7590259,Tél: 021 905 91 84,,https://www.heviva.ch/institutions/detail/ems/colombiere-epsm-la.html,epsmcolombiere@fondation-saphir.ch
64,"COMMANDANT BAUD, CAT de l'EMS",Chantre aux Daims 1,1143 Apples,Chantre aux Daims 1 1143 Apples ,46.554754,6.4304868,Tél: 021 800 91 11,Fax: 021 800 49 21,https://www.heviva.ch/institutions/detail/ems/commandant-baud-cat-de-lems.html,info@fondationbaud.ch
65,"COMMANDANT BAUD, EMS",Chantre-aux-Daims 1,1143 Apples,Chantre-aux-Daims 1 1143 Apples ,46.554754,6.4304868,Tél: 021 800 91 11,Fax: 021 800 49 21,https://www.heviva.ch/institutions/detail/ems/commandant-baud-ems.html,info@fondationbaud.ch
66,"CONTESSE, EMS",Praz Amiet 6,1322 Croy,Praz Amiet 6 1322 Croy ,46.6922814,6.478485,Tél: 024 453 70 70,,https://www.heviva.ch/institutions/detail/ems/contesse-ems.html,emscontesse@fondation-saphir.ch
67,"COTEAU-MURAZ, CAT de l'EMS",Rue Gambetta 20,1815 Clarens,Rue Gambetta 20 1815 Clarens ,46.4429193,6.896706,Tél: 021 989 55 76,Fax: 021 989 53 50,https://www.heviva.ch/institutions/detail/ems/coteau-muraz-cat-de-lems.html,cat@ems-fbs.ch
68,"COTEAU-MURAZ, EMS",Rue Gambetta 20,1815 Clarens,Rue Gambetta 20 1815 Clarens ,46.4429193,6.896706,Tél: 021 989 55 99,Fax: 021 989 55 50,https://www.heviva.ch/institutions/detail/ems/coteau-muraz-ems.html,direction@ems-fbs.ch
69,"COTTIER BOYS, CS de l'EMS",Rue de la Cage 4,1317 Orny,Rue de la Cage 4 1317 Orny ,46.6677054,6.5245564,Tél: 021 866 72 00,Fax: 021 866 62 49,https://www.heviva.ch/institutions/detail/ems/cottier-boys-cs-de-lems.html,info@cottier-boys.ch
70,"COTTIER BOYS, EMS",Rue de la Cage 4,1317 Orny,Rue de la Cage 4 1317 Orny ,46.6677054,6.5245564,Tél: 021 866 72 00,Fax: 021 866 02 75,https://www.heviva.ch/institutions/detail/ems/cottier-boys-ems.html,c.perrenoud@cottier-boys.ch
71,"DILIGENCE, CAT DE L'EMS","Rue des Charpentiers 32, CP 348",1110 Morges 1,"Rue des Charpentiers 32, CP 348 1110 Morges 1 ",46.5094231,6.496236,Tél: 021 811 42 42,Fax: 021 811 42 40,https://www.heviva.ch/institutions/detail/ems/diligence-cat-de-lems.html,admin@la-diligence.ch
72,"DONATELLA MAURI, CAT de la Fondation",Chemin du Brit 2,1032 Romanel-sur-Lausanne,Chemin du Brit 2 1032 Romanel-sur-Lausanne ,46.5619575,6.6018092,Tél: 021 641 07 39,Fax: 021 641 07 07,https://www.heviva.ch/institutions/detail/ems/donatella-mauri-cat-de-la-fondation.html,animation@donatellamauri.ch
73,"DONATELLA MAURI, FONDATION",Chemin du Brit 2,1032 Romanel-sur-Lausanne,Chemin du Brit 2 1032 Romanel-sur-Lausanne ,46.5619575,6.6018092,Tél: 021 641 07 00,Fax: 021 641 07 07,https://www.heviva.ch/institutions/detail/ems/donatella-mauri-fondation.html,administration@donatellamauri.ch
74,"EIKENOTT, LP d'",Allé Léothérius 1,1196 Gland,Allé Léothérius 1 1196 Gland ,46.4268729,6.2640328,Tél: 022 354 04 10,,https://www.heviva.ch/institutions/detail/ems/eikenott-lp-d.html,greffe.municipal@gland.ch
75,EMS LA DOUVAZ,Chemin de la Douvaz 1,1423 Villars-Burquin,Chemin de la Douvaz 1 1423 Villars-Burquin ,46.8491152,6.6187485,Tél: 024 436 04 04,,https://www.heviva.ch/institutions/detail/ems/douvaz-ems-la.html,emsdouvaz@fondation-saphir.ch
76,"ESCAPADE L', EMS",Rue du Martinet 2,1188 Gimel,Rue du Martinet 2 1188 Gimel ,46.5089151,6.3067809,Tél: 058 748 87 00,Fax: 058 748 87 49,https://www.heviva.ch/institutions/detail/ems/escapade-l-ems.html,sandrine.heuls@altage.ch
77,"ETOILE DU MATIN, EMS",Chemin de l'Etoile du Matin 5,1805 Jongny,Chemin de l'Etoile du Matin 5 1805 Jongny ,46.4844304,6.8477858,Tél: 021 925 95 55,,https://www.heviva.ch/institutions/detail/ems/etoile-du-matin-ems.html,admin@fcm63.ch
78,"FAVERGE, CAT de l'EMS La",Route de Bulle 10,1610 Oron-la-Ville,Route de Bulle 10 1610 Oron-la-Ville ,46.5705811,6.8300625,Tél: 021 908 09 08,Fax: 021 908 09 09,https://www.heviva.ch/institutions/detail/ems/faverge-cat-de-lems-la.html,secretariat-reception@emsfaverge.ch
79,"FAVERGE, CS de l'EMS la",Route de Bulle 10,1610 Oron-la-Ville,Route de Bulle 10 1610 Oron-la-Ville ,46.5705811,6.8300625,Tél: 021 908 09 08,Fax: 021 908 09 09,https://www.heviva.ch/institutions/detail/ems/faverge-cs-de-lems-la.html,secretariat-reception@emsfaverge.ch
80,"FAVERGE, EMS LA",Route de Bulle 10,1610 Oron-la-Ville,Route de Bulle 10 1610 Oron-la-Ville ,46.5705811,6.8300625,Tél: 021 908 09 08,Fax: 021 908 09 09,https://www.heviva.ch/institutions/detail/ems/faverge-ems-la.html,secretariat-reception@emsfaverge.ch
81,"FAVERGE, LP",Route de Palézieux 15 A et 15 B,1610 Oron-la-Ville,Route de Palézieux 15 A et 15 B 1610 Oron-la-Ville ,46.5694657,6.8295718,Tél: 021 908 09 08,Fax: 021 908 09 09,https://www.heviva.ch/institutions/detail/ems/faverge-lp.html,secretariat-reception@emsfaverge.ch
82,"FLON, EMS LE",Rte du Flon 19,1610 Oron-la-Ville,Rte du Flon 19 1610 Oron-la-Ville ,46.5697895,6.8230597,Tél: 021 908 02 00,Fax: 021 908 02 08,https://www.heviva.ch/institutions/detail/ems/flon-ems-le.html,leflon.info@fondationdurelais.ch
83,"FONDATION PRIMEROCHE, CAT DE LA HALTE-RELAIS",Rue des Métiers 2,1008 Prilly,Rue des Métiers 2 1008 Prilly ,46.5335221,6.6060138,Tél: 021 545 56 40,Fax: 021 545 56 41,https://www.heviva.ch/institutions/detail/ems/halte-relais-cat-de-la-fondation-primeroche.html,info@primeroche.ch
84,"FONDATION PRIMEROCHE, CAT LE GRAND PRE",Rue du Grand-Pré 2,1033 Cheseaux-Lausanne,Rue du Grand-Pré 2 1033 Cheseaux-Lausanne ,46.583263,6.6035955,Tél: 021 545 55 67,Fax: 021 545 55 56,https://www.heviva.ch/institutions/detail/ems/grand-pre-cat-de-la-fondation-primeroche.html,info@primeroche.ch
85,"FONDATION PRIMEROCHE, CAT LE VALENTIN",Rue du Valentin 34,1004 Lausanne,Rue du Valentin 34 1004 Lausanne ,46.5264946,6.6315242,Tél: 021 545 56 75,Fax: 021 545 56 76,https://www.heviva.ch/institutions/detail/ems/valentin-cat-de-la-fondation-primeroche.html,info@primeroche.ch
86,"FONDATION PRIMEROCHE, CS DE LA HALTE-RELAIS",Rue des Métiers 2,1008 Prilly,Rue des Métiers 2 1008 Prilly ,46.5335221,6.6060138,Tél: 021 545 56 40,Fax: 021 545 56 41,https://www.heviva.ch/institutions/detail/ems/halte-relais-primeroche-cs.html,info@primeroche.ch
87,"FONDATION PRIMEROCHE, EMS LE GRAND PRE",Rue du Grand Pré 2,1033 Cheseaux-sur-Lausanne,Rue du Grand Pré 2 1033 Cheseaux-sur-Lausanne ,46.583263,6.6035955,Tél: 021 545 55 55,Fax: 021 545 55 56,https://www.heviva.ch/institutions/detail/ems/grand-pre-ems-le.html,info@primeroche.ch
88,"FONDATION PRIMEROCHE, EMS LES LYS",Rue des Métiers 3,1008 Prilly,Rue des Métiers 3 1008 Prilly ,46.5331571,6.606505,Tél: 021 545 55 55,Fax: 021 545 55 56,https://www.heviva.ch/institutions/detail/ems/lys-ems-les.html,info@primeroche.ch
89,"FONDATION PRIMEROCHE, LOGEMENTS SUPERVISES DE RENENS",Avenue du 14 avril 3,1020 Renens,Avenue du 14 avril 3 1020 Renens ,46.5394055,6.58039,Tél: 079 386 57 71,Fax: 021 545 56 41,https://www.heviva.ch/institutions/detail/ems/logements-supervises-renens-de-la-fondation-primeroche.html,info@primeroche.ch
90,"FONDATION PRIMEROCHE, LP DE PRILLY",Avenue de la Confrérie 44,1008 Prilly,Avenue de la Confrérie 44 1008 Prilly ,46.5332825,6.6056427,Tél: 021 545 56 40,Fax: 021 545 56 41,https://www.heviva.ch/institutions/detail/ems/prilly-lp-de-la-fondation-primeroche.html,info@primeroche.ch
91,"FONDATION PRIMEROCHE, LP LE GRAND PRE",Rue du Grand Pré 10 et 12,1033 Cheseaux-sur-Lausanne,Rue du Grand Pré 10 et 12 1033 Cheseaux-sur-Lausanne ,46.583329,6.603668,Tél: 021 545 55 67,Fax: 021 545 55 56,https://www.heviva.ch/institutions/detail/ems/grand-pre-lp-de-la-fondation-primeroche.html,info@primeroche.ch
92,"FOUGERES, LP de la Résidence Les",Route du Village 10/12,1112 Echichens,Route du Village 10/12 1112 Echichens ,46.5275426,6.5010928,Tél: 021 804 08 11,,https://www.heviva.ch/institutions/detail/ems/fougeres-lp-de-la-residence-les.html,info@fondationsilo.ch
93,"GAMBETTA, CS de l'EMS",Rue de Gambetta 3,1815 Clarens,Rue de Gambetta 3 1815 Clarens ,46.440698,6.8956985,Tél: 021 989 91 91,Fax: 021 989 91 92,https://www.heviva.ch/institutions/detail/ems/gambetta-cs-de-lems.html,info@emsgambetta.ch
94,"GAMBETTA, EMS",Rue Gambetta 3/CP 268,1815 Clarens,Rue Gambetta 3/CP 268 1815 Clarens ,46.4406405,6.8957148,Tél: 021 989 91 91,Fax: 021 989 91 92,https://www.heviva.ch/institutions/detail/ems/gambetta-ems.html,direction@emsgambetta.ch
95,"GAMBETTA, LP de l'EMS",Rue Gambetta 3,1815 Clarens,Rue Gambetta 3 1815 Clarens ,46.440698,6.8956985,Tél: 021 989 91 91,Fax: 021 989 91 92,https://www.heviva.ch/institutions/detail/ems/gambetta-lp-de-lems.html,direction@emsgambetta.ch
96,"GIRARDE, CAT de la Résidence La",Chemin de la Girarde 2,1066 Epalinges,Chemin de la Girarde 2 1066 Epalinges ,46.5498328,6.6748218,Tél: 021 711 72 58,Fax: 021 711 72 62,https://www.heviva.ch/institutions/detail/ems/girarde-cat-de-la-residence-la.html,elisabeth.lenoir@fondationdurelais.ch
97,"GIRARDE, RESIDENCE LA",Chemin de la Girarde 2,1066 Epalinges,Chemin de la Girarde 2 1066 Epalinges ,46.5498328,6.6748218,Tél: 021 711 72 00,Fax: 021 711 72 62,https://www.heviva.ch/institutions/detail/ems/girarde-residence-la.html,girarde.info@fondationdurelais.ch
98,"HAUTE COMBE, CS de l'EMS",Chemin du Stand 3,1009 Pully,Chemin du Stand 3 1009 Pully ,46.5191667,6.6683612,Tél: 021 721 40 80,Fax: 021 721 40 90,https://www.heviva.ch/institutions/detail/ems/haute-combe-cs-de-lems.html,pre-pariset@pre-pariset.ch
99,"HAUTE COMBE, EMS",Chemin du Stand 3,1009 Pully,Chemin du Stand 3 1009 Pully ,46.5191667,6.6683612,Tél: 021 721 40 80,Fax: 021 721 40 90,https://www.heviva.ch/institutions/detail/ems/haute-combe-ems.html,pre-pariset@pre-pariset.ch
100,"HIRONDELLES, EMS LES",Avenue Jean-Jacques Rousseau 19,1815 Clarens-sur-Montreux,Avenue Jean-Jacques Rousseau 19 1815 Clarens-sur-Montreux ,46.4430451,6.8917292,Tél: 021 989 29 00,,https://www.heviva.ch/institutions/detail/ems/hirondelles-ems-les.html,admin@fcm63.ch
101,"HOME - LES PINS SA, SITE LE HOME",Avenue des Peupliers 22a,1009 Pully,Avenue des Peupliers 22a 1009 Pully ,46.5196323,6.6627638,Tél: 021 721 02 70,Fax: 021 721 02 71,https://www.heviva.ch/institutions/detail/ems/home-les-pins-sa-site-le-home.html,info@lehome-lespins.ch
102,"HOME - LES PINS SA, SITE LES PINS",Ch. des Grand-Vennes 15,1010 Lausanne,Ch. des Grand-Vennes 15 1010 Lausanne ,46.5425723,6.6532498,Tél: 021 654 46 54,Fax: 021 654 46 50,https://www.heviva.ch/institutions/detail/ems/home-les-pins-sa-site-les-pins.html,info@lehome-lespins.ch
103,HOME SALEM,"Route des Deux-Villages 96, Case postale 70",1806 Saint-Légier,"Route des Deux-Villages 96, Case postale 70 1806 Saint-Légier ",46.4701183,6.8857629,Tél: 021 943 90 90,Fax: 021 943 90 91,https://www.heviva.ch/institutions/detail/ems/home-salem.html,home.salem@eben-hezer.ch
104,"HOME SALEM, CAT intramuros du",Route des Deux-Villages 96,1806 St-Légier,Route des Deux-Villages 96 1806 St-Légier ,46.4701183,6.8857629,Tél: 021 943 90 76,Fax: 021 943 90 91,https://www.heviva.ch/institutions/detail/ems/home-salem-cat-intramuros-du.html,cat.salem@eben-hezer.ch
105,"HOPITAL D'AUBONNE, DIVISION LITS C",Avenue Trévelin 67,1170 Aubonne,Avenue Trévelin 67 1170 Aubonne ,46.4917243,6.3887023,Tél: 021 821 41 11,Fax: 021 821 41 14,https://www.heviva.ch/institutions/detail/ems/hopital-daubonne-division-lits-c.html,aubadmin@ehc.vd.ch
106,"INTERMEDE, CAT de la Fondation de l'Orme",Route des Plaines-du-Loup 4A,1000 Lausanne 18,Route des Plaines-du-Loup 4A 1000 Lausanne 18 ,46.5332837,6.6273854,Tél: 021 641 62 00,Fax: 021 641 62 49,https://www.heviva.ch/institutions/detail/ems/intermede-cat-de-la-fondation-de-lorme.html,ems@fdorme.ch
107,"JAQUES ET CHARLES DUC, EPSM",Av. Eugène Burnand 26A,1510 Moudon,Av. Eugène Burnand 26A 1510 Moudon ,46.6623523,6.7951032,Tél: 026 668 11 17,Fax: 026 668 02 87,https://www.heviva.ch/institutions/detail/ems/jaques-et-charles-duc-epsm.html,christine.semadeni@epsmduc.ch
108,"JARDINS DE LA PLAINE, CAT de l'EMS les",Avenue Haldimand 24A,1400 Yverdon-les-Bains,Avenue Haldimand 24A 1400 Yverdon-les-Bains ,46.7790322,6.6449118,Tél: 024 426 38 49,Fax: 024 426 38 79,https://www.heviva.ch/institutions/detail/ems/jardins-de-la-plaine-cat-de-lems-les.html,fabrizio.dallolio@altage.ch
109,"JARDINS DE LA PLAINE, EMS LES",Rue Haldimand 14b,1400 Yverdon-les-Bains,Rue Haldimand 14b 1400 Yverdon-les-Bains ,46.7786575,6.6443677,Tél: 058 748 82 00,Fax: 058 748 82 89,https://www.heviva.ch/institutions/detail/ems/jardins-de-la-plaine-ems-les.html,michele.gavillet@altage.ch
110,"JARDINS DE LA PLAINE, LP de l'EMS les",Avenue Haldimand 14B,1400 Yverdon-les-Bains,Avenue Haldimand 14B 1400 Yverdon-les-Bains ,46.7786575,6.6443677,Tél: 024 423 88 88,,https://www.heviva.ch/institutions/detail/ems/jardins-de-la-plaine-lp-de-lems-les.html,stella.follonier@altage.ch
111,"JARDINS DU LEMAN, EMS LES",Route de l'Hôpital 24,1180 Rolle,Route de l'Hôpital 24 1180 Rolle ,46.4639421,6.3459414,Tél: 021 703 53 00,Fax: 021 703 53 01,https://www.heviva.ch/institutions/detail/ems/jardins-du-leman-ems-les.html,emslesjardinsduleman@ghol.ch
112,"JOLI BOIS, EMS",Route de Joli-Bois 10,1832 Chamby,Route de Joli-Bois 10 1832 Chamby ,46.4543284,6.9092645,Tél: 021 989 90 90,Fax: 021 989 90 91,https://www.heviva.ch/institutions/detail/ems/joli-bois-ems.html,jbinfo@fondationlaprimerose.ch
113,"JURA, EMS DU",Chez Barrat 3,1338 Ballaigues,Chez Barrat 3 1338 Ballaigues ,46.7293454,6.4073628,Tél: 021 843 80 80,,https://www.heviva.ch/institutions/detail/ems/jura-ems-du.html,emsdujura@fondation-saphir.ch
114,"KANUMERA, CAT",Avenue du 14 Avril 12,1020 Renens,Avenue du 14 Avril 12 1020 Renens ,46.5384105,6.5826137,Tél: 021 671 14 17,,https://www.heviva.ch/institutions/detail/ems/kanumera-cat.html,kainfo@fondationlaprimerose.ch
115,"L'ENTRACTE, CAT",Route de Marcolet 39,1023 Crissier,Route de Marcolet 39 1023 Crissier ,46.5447859,6.5744601,Tél: 021 552 67 77,,https://www.heviva.ch/institutions/detail/ems/lentracte-cat.html,eninfo@fondationlaprimerose.ch
116,LA ROCHELLE,route de Vaumarcus 1,1428 Concise,route de Vaumarcus 1 1428 Concise ,46.8848519,6.7617594,Tél: 058 748 83 60,Fax: 058 748 83 99,https://www.heviva.ch/institutions/detail/ems/thonney-pension.html,kiny.mottier@altage.ch
117,"LE CHÊNE, EMS",Chemin du Bochet 16C,1196 Gland,Chemin du Bochet 16C 1196 Gland ,46.4144012,6.2771342,Tél: 022 366 61 11,Fax: 022 376 14 00,https://www.heviva.ch/institutions/detail/ems/le-chene-ems.html,info@bellesaison.ch
118,"LEMAN, LP de la Résidence",Rte de la Vernie 8A,1023 Crissier,Rte de la Vernie 8A 1023 Crissier ,46.5449036,6.5733761,Tél: 021 925 91 91,,https://www.heviva.ch/institutions/detail/ems/leman-lp-de-la-residence.html,contact@residence-du-leman.ch
119,"LEMAN, RESIDENCE DU",Route de Lavaux 12,1802 Corseaux,Route de Lavaux 12 1802 Corseaux ,46.4687111,6.8317341,Tél: 021 925 91 91,Fax: 021 923 66 55,https://www.heviva.ch/institutions/detail/ems/leman-residence-du.html,contact@residence-du-leman.ch
120,"LEMBAZ, EMS La","Route de l'Eglise 27, Case Postale 30",1523 Granges-Marnand,"Route de l'Eglise 27, Case Postale 30 1523 Granges-Marnand ",46.7609424,6.8906049,Tél: 026 668 63 00,Fax: 026 668 63 99,https://www.heviva.ch/institutions/detail/ems/lembaz-ems-la.html,info@emslalembaz.ch
121,LES APPARTS,Route de Bellevue 49,1400 Yverdon-les-Bains,Route de Bellevue 49 1400 Yverdon-les-Bains ,46.7744927,6.6647972,Tél: 024 424 92 10,,https://www.heviva.ch/institutions/detail/ems/apparts-lp-les.html,lesapparts@fondation-saphir.ch
122,"LOUIS BOISSONNET, EMS",Chemin de Boissonnet 51,1010 Lausanne,Chemin de Boissonnet 51 1010 Lausanne ,46.5395321,6.6457577,Tél: 021 651 31 11,Fax: 021 651 31 85,https://www.heviva.ch/institutions/detail/ems/louis-boissonnet-ems.html,boissonnet@boissonnet.ch
123,"MAILLEFER, CAT de la Fondation Bois-Gentil",Chemin de Maillefer 125,1018 Lausanne,Chemin de Maillefer 125 1018 Lausanne ,46.5410155,6.6260751,Tél: 021 512 32 90,,https://www.heviva.ch/institutions/detail/ems/maillefer-cat-de-la-fondation-bois-gentil.html,referent_CAT@fbg.ch
124,"MAILLEFER, LP de la Fondation Bois-Gentil",Chemin de Maillefer 125,1018 Lausanne,Chemin de Maillefer 125 1018 Lausanne ,46.5410155,6.6260751,Tél: 021 512 32 95,,https://www.heviva.ch/institutions/detail/ems/maillefer-lp-de-la-fondation-bois-gentil.html,ac.bonard@fbg.ch
125,"MAILLON, CS de l'EMS le",Les Chevalleyres,1807 Blonay,Les Chevalleyres 1807 Blonay ,46.4771074,6.8959938,Tél: 021 943 99 00,Fax: 021 943 99 90,https://www.heviva.ch/institutions/detail/ems/maillon-cs-de-lems-le.html,direction@ems-fbs.ch
126,"MAILLON, EMS LE",Les Chevalleyres,1807 Blonay,Les Chevalleyres 1807 Blonay ,46.4771074,6.8959938,Tél: 021 943 99 00,Fax: 021 943 99 90,https://www.heviva.ch/institutions/detail/ems/maillon-ems-le.html,direction@ems-fbs.ch
127,Maison Béthel,Chemin de Lacuez 4,1807 Blonay,Chemin de Lacuez 4 1807 Blonay ,46.4668936,6.8889441,Tél: 021 925 50 40,Fax: 021 925 50 41,https://www.heviva.ch/institutions/detail/ems/bethel-maison-de.html,info@maison-bethel.ch
128,MAISON D'ORPHEE,Pré du Marché 46,1004 Lausanne,Pré du Marché 46 1004 Lausanne ,46.525153,6.6295846,Tél: 021 647 13 77,Fax: 021 647 25 77,https://www.heviva.ch/institutions/detail/ems/maison-dorphee.html,direction@lamaisondorphee.ch
129,MAISON DU PELERIN,En Beaumaroche,1801 Le Mont-Pélerin,En Beaumaroche 1801 Le Mont-Pélerin ,46.4821695,6.8308478,Tél: 021 925 61 11,Fax: 021 925 60 90,https://www.heviva.ch/institutions/detail/ems/maison-du-pelerin.html,info@ems-pelerin.ch
130,"MARC AURELE, FONDATION",Avenue Jomini 1 - Case postale 107,1580 Avenches,Avenue Jomini 1 - Case postale 107 1580 Avenches ,46.8815841,7.0437197,Tél: 026 676 44 44,Fax: 026 676 44 45,https://www.heviva.ch/institutions/detail/ems/marc-aurele-fondation.html,secretariat@marcaurele.ch
131,"MARC-AURELE, CAT de l'EMS",Avenue Jomini 1,1580 Avenches,Avenue Jomini 1 1580 Avenches ,46.8815841,7.0437197,Tél: 026 676 44 44,Fax: 026 676 44 41,https://www.heviva.ch/institutions/detail/ems/marc-aurele-cat-de-lems.html,secretariat@marcaurele.ch
132,"MARC-AURELE, CS de l'EMS",Avenue Jomini 1,1580 Avenches,Avenue Jomini 1 1580 Avenches ,46.8815841,7.0437197,Tél: 026 676 44 44,Fax: 026 676 44 45,https://www.heviva.ch/institutions/detail/ems/marc-aurele-cs-de-lems.html,secretariat@marcaurele.ch
133,"MARRONNIER, CAT de l'EMS Le",Route de Lavaux 20,1095 Lutry,Route de Lavaux 20 1095 Lutry ,46.504768,6.6769436,Tél: 021 796 70 05,Fax: 021 796 70 71,https://www.heviva.ch/institutions/detail/ems/marronnier-cat-de-lems-le.html,cat@ems-lemarronnier.ch
134,"MARRONNIER, EMS LE","Route de Lavaux 20, Case postale 341",1095 Lutry,"Route de Lavaux 20, Case postale 341 1095 Lutry ",46.504768,6.6769436,Tél: 021 796 70 70,Fax: 021 796 70 71,https://www.heviva.ch/institutions/detail/ems/marronnier-ems-le.html,info@ems-lemarronnier.ch
135,"MAURICE BUGNON, CS de l'EMS",Route de Rovray 26,1462 Yvonand,Route de Rovray 26 1462 Yvonand ,46.7951821,6.7486042,Tél: 024 430 05 00,Fax: 024 430 05 10,https://www.heviva.ch/institutions/detail/ems/maurice-bugnon-cs-de-lems.html,emsmauricebugnon@fondation-saphir.ch
136,"MAURICE BUGNON, EMS",Route de Rovray 26,1462 Yvonand,Route de Rovray 26 1462 Yvonand ,46.7951821,6.7486042,Tél: 024 430 05 00,,https://www.heviva.ch/institutions/detail/ems/maurice-bugnon-ems.html,emsmauricebugnon@fondation-saphir.ch
137,"MEILLERIE, EMS LA",Chemin de Meillerie 6,1006 Lausanne,Chemin de Meillerie 6 1006 Lausanne ,46.513572,6.6386009,Tél: 021 340 70 40,Fax: 021 340 70 50,https://www.heviva.ch/institutions/detail/ems/meillerie-ems-la.html,info@meillerie.ch
138,"MERIDIENNE, CAT la",Sur la Croix 3,1020 Renens,Sur la Croix 3 1020 Renens ,46.5434137,6.5934381,Tél: 021 634 52 52,Fax: 021 634 52 92,https://www.heviva.ch/institutions/detail/ems/meridienne-cat-la.html,meinfo@fondationlaprimerose.ch
139,"MERIDIENNE, EMS LA",Sur la Croix 3,1020 Renens,Sur la Croix 3 1020 Renens ,46.5434137,6.5934381,Tél: 021 634 52 52,Fax: 021 634 52 92,https://www.heviva.ch/institutions/detail/ems/meridienne-ems-la.html,meinfo@fondationlaprimerose.ch
140,"MIDI, FOYER DU",Rue du Midi 27,1400 Yverdon-les-Bains,Rue du Midi 27 1400 Yverdon-les-Bains ,46.7754198,6.6386665,Tél: 024 425 06 61,Fax: 024 425 2824,https://www.heviva.ch/institutions/detail/ems/midi-foyer-du.html,caffaro.direction@sispsa.ch
141,"MONT CALME, FONDATION",Rue du Bugnon 15,1005 Lausanne,Rue du Bugnon 15 1005 Lausanne ,46.5235318,6.6400435,Tél: 021 310 33 33,Fax: 021 310 33 22,https://www.heviva.ch/institutions/detail/ems/mont-calme-fondation.html,mont-calme@montcalme.ch
142,"MONT RIANT, EMS",Route de Bellevue 51,1400 Yverdon-les-Bains,Route de Bellevue 51 1400 Yverdon-les-Bains ,46.7743584,6.6645131,Tél: 024 424 92 40,,https://www.heviva.ch/institutions/detail/ems/mont-riant-ems.html,emsmontriant@fondation-saphir.ch
143,"MONTBRILLANT, EMS",Chemin des Ecoliers 4,1816 Chailly-Montreux,Chemin des Ecoliers 4 1816 Chailly-Montreux ,46.4506219,6.8915953,Tél: 021 989 54 99,Fax: 021 989 54 50,https://www.heviva.ch/institutions/detail/ems/montbrillant-ems.html,direction@ems-fbs.ch
144,"MOULINS, CAT des",Rue des Moulins 16,1800 Vevey,Rue des Moulins 16 1800 Vevey ,46.4655299,6.8433474,Tél: 021 922 56 15,,https://www.heviva.ch/institutions/detail/ems/moulins-cat-des.html,ajpsyger@eben-hezer.ch
145,"MYOSOTIS, EPSM LES",Rue de Venengy 16,1174 Montherod,Rue de Venengy 16 1174 Montherod ,46.4997372,6.3634291,Tél: 021 822 53 20,Fax: 021 822 53 21,https://www.heviva.ch/institutions/detail/ems/myosotis-epsm-les.html,myosotis@sefanet.ch
146,"NELTY DE BEAUSOBRE, EMS",Rue des Chapentiers 3,1110 Morges,Rue des Chapentiers 3 1110 Morges ,46.5106186,6.4977143,Tél: 021 811 49 11,Fax: 021 811 49 00,https://www.heviva.ch/institutions/detail/ems/nelty-de-beausobre-ems.html,emsnb@ehc.vd.ch
147,"NOUMEA, CAT",Chemin du Petit-Record 1,1040 Echallens,Chemin du Petit-Record 1 1040 Echallens ,46.6376406,6.6315625,Tél: 021 886 34 40,Fax: 021 886 34 41,https://www.heviva.ch/institutions/detail/ems/noumea-cat.html,cat.echallens@leschateaux.org
148,"OASIS, EMS L'","Avenue de Bussy 6, Case postale 118",1510 Moudon,"Avenue de Bussy 6, Case postale 118 1510 Moudon ",46.6712803,6.7987369,Tél: 021 905 97 97,Fax: 021 905 97 00,https://www.heviva.ch/institutions/detail/ems/oasis-ems-l.html,oasis@ems-oasis.ch
149,"ODMER, EPSM",Rte du Village 26,1854 Leysin,Rte du Village 26 1854 Leysin ,46.3400845,7.007897,Tél: 024 493 41 00,,https://www.heviva.ch/institutions/detail/ems/odmer-epsm.html,admin@fcm63.ch
150,"OISEAUX, EPSM LES",Avenue des Oiseaux 5,1018 Lausanne,Avenue des Oiseaux 5 1018 Lausanne ,46.5317402,6.6293346,Tél: 021 642 74 74,,https://www.heviva.ch/institutions/detail/ems/oiseaux-epsm-les.html,oiseaux@sispsa.ch
151,"ORIEL, FONDATION",Rue du Simplon 8,1020 Renens,Rue du Simplon 8 1020 Renens ,46.5353406,6.5804532,Tél: 021 633 14 40,Fax: 021 633 14 49,https://www.heviva.ch/institutions/detail/ems/oriel-fondation.html,info@oriel.ch
152,"ORME, FONDATION",Plaines du Loup 4a,1000 Lausanne 18,Plaines du Loup 4a 1000 Lausanne 18 ,46.5332837,6.6273854,Tél: 021 641 62 00,Fax: 021 641 62 49,https://www.heviva.ch/institutions/detail/ems/orme-fondation.html,ems@fondationdelorme.ch
153,"OURS, CAT de l'EMS de L'",Route de la Ville d'Oex 1,1660 Château-d'Oex,Route de la Ville d'Oex 1 1660 Château-d'Oex ,46.4736829,7.1305238,Tél: 026 924 28 00,Fax: 026 924 28 33,https://www.heviva.ch/institutions/detail/ems/ours-cat-de-lems-de-l.html,claudine.siffert@cogestems.ch
154,"OURS, EMS L'",Route de la Villa d'Oex 1,1660 Château-d'Oex,Route de la Villa d'Oex 1 1660 Château-d'Oex ,46.4739735,7.1298218,Tél: 026 924 28 00,Fax: 026 924 28 10,https://www.heviva.ch/institutions/detail/ems/ours-ems-l.html,info@cogestems.ch
155,"PAIX DU SOIR, CAT de l'EMS La",Chemin de Longeraie 9,1052 Le Mont-sur-Lausanne,Chemin de Longeraie 9 1052 Le Mont-sur-Lausanne ,46.5635387,6.6298213,Tél: 021 651 66 77,Fax: 021 651 66 56,https://www.heviva.ch/institutions/detail/ems/paix-du-soir-cat-de-lems-la.html,claudia.rossetti@paixdusoir.ch
156,"PAIX DU SOIR, EMS LA",Chemin de Longeraie 9,1052 Le Mont-sur-Lausanne,Chemin de Longeraie 9 1052 Le Mont-sur-Lausanne ,46.5635387,6.6298213,Tél: 021 651 66 66,Fax: 021 651 66 56,https://www.heviva.ch/institutions/detail/ems/paix-du-soir-ems-la.html,info@paixdusoir.ch
157,"PALMIERS, CAT de l'EMS Le",Avenue du Rond-Point 1,1003 Lausanne,Avenue du Rond-Point 1 1003 Lausanne ,46.5152559,6.6286404,Tél: 021 617 33 70,Fax: 021 617 33 70,https://www.heviva.ch/institutions/detail/ems/palmiers-cat-de-lems-le.html,cat.palmiers@montcalme.ch
158,"PANORAMA, CAT du Centre du",Rue du Clos 9,1800 Vevey,Rue du Clos 9 1800 Vevey ,46.4604886,6.8469918,Tél: 021 923 00 23,Fax: 021 923 00 29,https://www.heviva.ch/institutions/detail/ems/panorama-cat-du-centre-du.html,panorama@fondationbeausejour.ch
159,"PARC DE BEAUSOBRE, CAT de l'EMS Le",Avenue de Chanel 6,1110 Morges,Avenue de Chanel 6 1110 Morges ,46.5144165,6.4933364,Tél: 079 172 84 17,Fax: 021 804 63 00,https://www.heviva.ch/institutions/detail/ems/parc-de-beausobre-cat-de-lems-le.html,emspb@ehc.vd.ch
160,"PARC DE BEAUSOBRE, EMS",Avenue de Chanel 26,1110 Morges,Avenue de Chanel 26 1110 Morges ,46.51681,6.4978229,Tél: 021 804 63 11,Fax: 021 804 63 00,https://www.heviva.ch/institutions/detail/ems/parc-de-beausobre-ems.html,emspb@ehc.vd.ch
161,"PARC DE VALENCY, EMS",Route de Prilly 18,1004 Lausanne,Route de Prilly 18 1004 Lausanne ,46.5325229,6.6100196,Tél: 058 748 84 60,Fax: 058 748 85 29,https://www.heviva.ch/institutions/detail/ems/parc-de-valency-ems.html,sandrine.heuls@altage.ch
162,"PARC DE VALENCY, LP de la Résidence",Avenue Benjamin Dumur 9,1004 Lausanne,Avenue Benjamin Dumur 9 1004 Lausanne ,46.532727,6.6103497,Tél: 021 623 24 74,Fax: 021 623 24 94,https://www.heviva.ch/institutions/detail/ems/parc-de-valency-lp-de-la-residence.html,marianne.piguet@altage.ch
163,"PERGOLAS, EMS LES","Route du Genevrex 20, Case postale 91",1071 Chexbres,"Route du Genevrex 20, Case postale 91 1071 Chexbres ",46.4849857,6.7739103,Tél: 021 946 08 08,,https://www.heviva.ch/institutions/detail/ems/pergolas-ems-les.html,admin@fcm63.ch
164,"PHARE ELIM, EMS","Avenue de la Paix 11, Case postale 444",1814 La Tour-de-Peilz,"Avenue de la Paix 11, Case postale 444 1814 La Tour-de-Peilz ",46.4517167,6.8607409,Tél: 021 977 33 33,Fax: 021 977 33 90,https://www.heviva.ch/institutions/detail/ems/phare-elim-ems.html,ems@phare-elim.ch
165,"PLEIN SUD, LP",Chemin des Baules 4,1268 Begnins,Chemin des Baules 4 1268 Begnins ,46.4421423,6.2458947,Tél: 024 424 15 51,,https://www.heviva.ch/institutions/detail/ems/plein-sud-lp.html,info@residence-plein-sud.ch
166,"POMMERAIE, EPSM LA",Route de la Dent 33,1660 Château-d'Oex,Route de la Dent 33 1660 Château-d'Oex ,46.4767674,7.1284516,Tél: 026 924 60 88,Fax: 026 924 31 52,https://www.heviva.ch/institutions/detail/ems/pommeraie-epsm-la.html,info@cogestems.ch
167,"PRAZ JORET, RESIDENCE","Route de Servion 36 A, Case postale 33",1083 Mezières,"Route de Servion 36 A, Case postale 33 1083 Mezières ",46.5837726,6.7715839,Tél: 021 903 09 40,Fax: 021 903 09 41,https://www.heviva.ch/institutions/detail/ems/praz-joret-residence.html,admin@praz-joret.ch
168,PRAZ SECHAUD I,Praz-Séchaud 17,1010 Lausanne,Praz-Séchaud 17 1010 Lausanne ,46.539669,6.6644577,Tél: 058 748 88 60,Fax: 058 748 88 79,https://www.heviva.ch/institutions/detail/ems/praz-sechaud-i.html,sandrine.heuls@altage.ch
169,PRAZ SECHAUD II,Avenue de Morges 68,1004 Lausanne,Avenue de Morges 68 1004 Lausanne ,46.5270999,6.6080411,Tél: 058 748 84 30,Fax: 058 748 84 59,https://www.heviva.ch/institutions/detail/ems/praz-sechaud-ii.html,claude.paponnet@altage.ch
170,"PRE DE LA COURONNE, LP des",Place de la Couronne 3,1522 Lucens,Place de la Couronne 3 1522 Lucens ,46.7075685,6.8388458,Tél: 021 908 09 08,Fax: 021 908 09 09,https://www.heviva.ch/institutions/detail/ems/pre-de-la-couronne-lp-des.html,secretariat-reception@emsfaverge.ch
171,"PRE DE LA TOUR, CAT de l'EMS",Place Neuve 3,1009 Pully,Place Neuve 3 1009 Pully ,46.5112689,6.6592615,Tél: 021 721 18 24,Fax: 021 721 18 00,https://www.heviva.ch/institutions/detail/ems/pre-de-la-tour-cat-de-lems.html,dsuter@pre-pariset.ch
172,"PRE DE LA TOUR, EMS","Place Neuve 3, case postale 190",1009 Pully,"Place Neuve 3, case postale 190 1009 Pully ",46.5112689,6.6592615,Tél: 021 721 18 11,Fax: 021 721 18 00,https://www.heviva.ch/institutions/detail/ems/pre-de-la-tour-ems.html,cmeierhans@pre-pariset.ch
173,"PRE FLEURI, RESIDENCE",Route de la Clochatte 10 C,1018 Lausanne,Route de la Clochatte 10 C 1018 Lausanne ,46.542552,6.64056,Tél: 021 652 14 22,Fax: 021 653 69 39,https://www.heviva.ch/institutions/detail/ems/pre-fleuri-residence.html,info@pre-fleuri.ch
174,"PRE PARISET, EMS",Chemin du Stand 1,1009 Pully,Chemin du Stand 1 1009 Pully ,46.5193674,6.6674592,Tél: 021 721 27 00,Fax: 021 721 27 90,https://www.heviva.ch/institutions/detail/ems/pre-pariset-ems.html,pre-pariset@pre-pariset.ch
175,"PRE-CARRE, EPSM LE",Route de Chavornay 11,1374 Corcelles-sur-Chavornay,Route de Chavornay 11 1374 Corcelles-sur-Chavornay ,46.7031006,6.5950531,Tél: 024 441 41 19,,https://www.heviva.ch/institutions/detail/ems/pre-carre-epsm-le.html,epsmprecarre@fondation-saphir.ch
176,"PRERISA, FONDATION","Allée Prerisa, Case postale 118",1522 Lucens,"Allée Prerisa, Case postale 118 1522 Lucens ",46.7035235,6.8374348,Tél: 021 906 12 12,Fax: 021 906 12 36,https://www.heviva.ch/institutions/detail/ems/prerisa-fondation.html,info@prerisa.ch
177,"QUATRE MARRONNIERS, CAT de l'EMS Les",Avenue des 4 Marronniers 30,1400 Yverdon-les-Bains,Avenue des 4 Marronniers 30 1400 Yverdon-les-Bains ,46.7775898,6.6529247,Tél: 024 424 00 00,,https://www.heviva.ch/institutions/detail/ems/quatre-marronniers-cat-de-lems-les.html,cat@4marronniers.ch
178,"QUATRE MARRONNIERS, CS de l'EMS Les",Avenue des 4 Marronniers 30,1400 Yverdon-les-Bains,Avenue des 4 Marronniers 30 1400 Yverdon-les-Bains ,46.7775898,6.6529247,Tél: 024 424 00 00,,https://www.heviva.ch/institutions/detail/ems/quatre-marronniers-cs-de-lems-les.html,info@4marronniers.ch
179,"QUATRE MARRONNIERS, EMS LES",Avenue des 4-Marronniers 30,1400 Yverdon-les-Bains,Avenue des 4-Marronniers 30 1400 Yverdon-les-Bains ,46.7775898,6.6529247,Tél: 024 424 00 00,Fax: 024 424 00 01,https://www.heviva.ch/institutions/detail/ems/quatre-marronniers-ems-les.html,info@4marronniers.ch
180,"QUATRE SAISONS, EMS LES",Rue de la Gare 11,1196 Gland,Rue de la Gare 11 1196 Gland ,46.4228613,6.2662911,Tél: 022 354 20 10,Fax: 022 354 20 11,https://www.heviva.ch/institutions/detail/ems/quatre-saisons-ems-les.html,info@bellesaison.ch
181,"RECORDON, EMS",Avenue de France 17,1004 Lausanne,Avenue de France 17 1004 Lausanne ,46.5245917,6.6233713,Tél: 021 626 86 80,Fax: 021 626 85 03,https://www.heviva.ch/institutions/detail/ems/recordon-ems.html,ems.recordon@fa2.ch
182,"REPERE, CAT Le",Ruelle Perdtemps 9,1260 Nyon,Ruelle Perdtemps 9 1260 Nyon ,46.384522,6.2383763,Tél: 079 606 54 52,,https://www.heviva.ch/institutions/detail/ems/repere-cat-le.html,info@bellesaison.ch
183,Résidence AGATE,Route de Bellevue 57,1400 Yverdon-les-Bains,Route de Bellevue 57 1400 Yverdon-les-Bains ,46.7738589,6.6635141,Tél: 024 426 06 95,,https://www.heviva.ch/institutions/detail/ems/agate-residence.html,residenceagate@fondation-saphir.ch
184,RESIDENCE AIGLE,Chemin du Levant 6,1860 Aigle,Chemin du Levant 6 1860 Aigle ,46.3170319,6.959043,Tél: 024 468 66 91,Fax: 024 468 66 95,https://www.heviva.ch/institutions/detail/ems/residence-aigle.html,aigle@ems-chablais.ch
185,"RESIDENCE AIGLE, CAT de la",Chemin du Levant 6,1860 Aigle,Chemin du Levant 6 1860 Aigle ,46.3170319,6.959043,Tél: 024 468 66 91,Fax: 024 468 66 95,https://www.heviva.ch/institutions/detail/ems/residence-aigle-cat-de-la.html,aigcat@ems-chablais.ch
186,"RESIDENCE AIGLE, CS de la",Chemin du Levant 6,1860 Aigle,Chemin du Levant 6 1860 Aigle ,46.3170319,6.959043,Tél: 024 468 66 91,Fax: 024 468 66 95,https://www.heviva.ch/institutions/detail/ems/residence-aigle-cs-de-la.html,aigadministration@ems-chablais.ch
187,RESIDENCE DIABLERETS,Route du Pillon 161,1865 Les Diablerets,Route du Pillon 161 1865 Les Diablerets ,46.352125,7.1563424,Tél: 024 492 80 00,Fax: 024 492 80 09,https://www.heviva.ch/institutions/detail/ems/residence-diablerets.html,diablerets@ems-chablais.ch
188,"RESIDENCE DIABLERETS, CAT de la",Route du Pillon 161,1865 Les Diablerets,Route du Pillon 161 1865 Les Diablerets ,46.352125,7.1563424,Tél: 024 492 80 00,Fax: 024 492 80 09,https://www.heviva.ch/institutions/detail/ems/residence-diablerets-cat-de-la.html,diaadministration@ems-chablais.ch
189,"RESIDENCE DIABLERETS, CS de la",Route du Pillon 161,1865 Les Diablerets,Route du Pillon 161 1865 Les Diablerets ,46.352125,7.1563424,Tél: 024 492 80 00,Fax: 024 492 80 09,https://www.heviva.ch/institutions/detail/ems/residence-diablerets-cs-de-la.html,diasecretariat@ems-chablais.ch
190,RESIDENCE GRANDE FONTAINE,Route de l’Infirmerie 17-19,1880 Bex,Route de l’Infirmerie 17-19 1880 Bex ,46.2475032,7.0223758,Tél: 024 463 91 91,Fax: 024 463 91 92,https://www.heviva.ch/institutions/detail/ems/residence-grande-fontaine.html,bex@ems-chablais.ch
191,"RESIDENCE GRANDE FONTAINE, CAT de la",Route de l'Infirmerie 25,1880 Bex,Route de l'Infirmerie 25 1880 Bex ,46.2458755,7.0225212,Tél: 024 463 32 00,Fax: 024 463 91 92,https://www.heviva.ch/institutions/detail/ems/residence-grande-fontaine-cat-de-la.html,referentecat@ems-chablais.ch
192,"ROSIERS, CS de l'EMS Les",Route de Brent 32,1807 Blonay,Route de Brent 32 1807 Blonay ,46.4610561,6.8925109,Tél: 021 943 07 77,Fax: 021 943 07 80,https://www.heviva.ch/institutions/detail/ems/rosiers-cs-de-lems-les.html,directionsoins@lesrosiers.ch
193,"ROSIERS, EMS LES",Route de Brent 32,1807 Blonay,Route de Brent 32 1807 Blonay ,46.4610561,6.8925109,Tél: 021 943 07 70,Fax: 021 943 07 80,https://www.heviva.ch/institutions/detail/ems/rosiers-ems-les.html,info@lesrosiers.ch
194,"ROTILLON, EPSM LE",Rue du Rôtillon 5,1003 Lausanne,Rue du Rôtillon 5 1003 Lausanne ,46.5205701,6.6343572,Tél: 021 349 94 00,,https://www.heviva.ch/institutions/detail/ems/rotillon-epsm-le.html,info@lerotillon.ch
195,"ROULOTTE, CAT",Les Uttins - Route de Lausanne 21,1028 Préverenges,Les Uttins - Route de Lausanne 21 1028 Préverenges ,46.5181622,6.5290526,Tél: 021 811 42 42,Fax: 021 811 42 42,https://www.heviva.ch/institutions/detail/ems/roulotte-cat.html,admin@la-diligence.ch
196,"ROZAVERE, FONDATION LA",Chemin de la Rovéréaz 23,1012 Lausanne,Chemin de la Rovéréaz 23 1012 Lausanne ,46.5297826,6.6553058,Tél: 021 651 38 11,Fax: 021 651 05 32,https://www.heviva.ch/institutions/detail/ems/rozavere-fondation-la.html,info@rozavere.ch
197,"RUISSEAU, CAT de Prérisa",Allée Prérisa 3,1522 Lucens,Allée Prérisa 3 1522 Lucens ,46.7035235,6.8374348,Tél: 021 906 12 12,Fax: 021 906 12 13,https://www.heviva.ch/institutions/detail/ems/ruisseau-cat-de-prerisa.html,cat@prerisa.ch
198,"SANS SOUCI, EPSM",Route de Gimel 23,1185 Mont-sur-Rolle,Route de Gimel 23 1185 Mont-sur-Rolle ,46.481544,6.3360115,Tél: 058 748 86 50,Fax: 058 748 86 99,https://www.heviva.ch/institutions/detail/ems/sans-souci-epsm.html,claude.paponnet@altage.ch
199,"SIGNAL, ASSOCIATION LE",Rte du Signal 6,1080 Les Cullayes,Rte du Signal 6 1080 Les Cullayes ,46.575807,6.7532997,Tél: 021 903 11 66,Fax: 021 903 38 18,https://www.heviva.ch/institutions/detail/ems/signal-association-le.html,secretariat@ems-lesignal.ch
200,"SILO, FONDATION",Route du Village 4,1112 Echichens,Route du Village 4 1112 Echichens ,46.5275961,6.5021215,Tél: 021 804 08 11,Fax: 021 802 21 98,https://www.heviva.ch/institutions/detail/ems/silo-fondation.html,info@fondationsilo.ch
201,"SOERENSEN-LA ROSIERE, EMS - SITE DE LA ROSIERE",Av. de la Rosière 20,1188 Gimel,Av. de la Rosière 20 1188 Gimel ,46.5133896,6.3119972,Tél: 021 314 82 80,Fax: 021 314 82 81,https://www.heviva.ch/institutions/detail/ems/soerensen-la-rosiere-ems-site-de-la-rosiere.html,ems.soerensen-larosiere@chuv.ch
202,"SOERENSEN-LA ROSIERE, EMS - SITE DE SOERENSEN",En Bauloz 37,1188 Gimel,En Bauloz 37 1188 Gimel ,46.5184834,6.2965255,Tél: 021 828 01 11,Fax: 021 828 01 10,https://www.heviva.ch/institutions/detail/ems/soerensen-la-rosiere-ems-site-de-soerensen.html,ems.soerensen-larosiere@chuv.ch
203,"SOLEIL, RESIDENCE LE",Route du Suchet,1854 Leysin,Route du Suchet 1854 Leysin ,46.3406524,7.0148287,Tél: 024 493 13 00,,https://www.heviva.ch/institutions/detail/ems/soleil-residence-le.html,admin@fcm63.ch
204,"SYLVABELLE, EPSM","La bessone, Lignerolles",1338 Ballaigues,"La bessone, Lignerolles 1338 Ballaigues ",46.7446887,6.4291369,Tél: 058 748 81 00,,https://www.heviva.ch/institutions/detail/ems/sylvabelle-epsm.html,kiny.mottier@altage.ch
205,"TERRASSE, EMS LA",Rue des Chenevières 2,1800 Vevey,Rue des Chenevières 2 1800 Vevey ,46.4579231,6.8530328,Tél: 021 977 27 27,Fax: 021 977 27 29,https://www.heviva.ch/institutions/detail/ems/terrasse-ems-la.html,info@ems-laterrasse.ch
206,"TERRASSE, LP de l'EMS la",Rue des Chenevières 2,1800 Vevey,Rue des Chenevières 2 1800 Vevey ,46.4579231,6.8530328,Tél: 021 977 27 27,Fax: 021 977 27 28,https://www.heviva.ch/institutions/detail/ems/terrasse-lp-de-lems-la.html,info@ems-laterrasse.ch
207,"TILLEULS, EPSM LES",Rue du Village 27,1273 Arzier,Rue du Village 27 1273 Arzier ,46.4600093,6.206981,Tél: 058 748 87 50,Fax: 058 748 87 99,https://www.heviva.ch/institutions/detail/ems/tilleuls-epsm-les.html,claude.paponnet@altage.ch
208,UATP LE QUAI,Quai de la Thiele 17,1400 Yverdon-les-Bains,Quai de la Thiele 17 1400 Yverdon-les-Bains ,46.7826961,6.6362741,Tél: 024 425 68 76,,https://www.heviva.ch/institutions/detail/ems/quai-uatp-le.html,uatplequai@fondation-saphir.ch
209,"VEILLEE, EMS LA",Route de Gollion 34,1304 Senarclens,Route de Gollion 34 1304 Senarclens ,46.598077,6.49261,Tél: 021 863 15 00,,https://www.heviva.ch/institutions/detail/ems/veillee-ems-la.html,info@la-veillee.ch
210,"VENOGE LA, SITE DE LA SARRAZ",Route de la Paix 22,1315 La Sarraz,Route de la Paix 22 1315 La Sarraz ,46.6562143,6.5113498,Tél: 021 866 02 33,Fax: 021 866 02 39,https://www.heviva.ch/institutions/detail/ems/venoge-la-site-de-la-sarraz.html,info@fondation-lavenoge.ch
211,"VENOGE LA, SITE DE PENTHALAZ, EMS",Route de la Vuy,1305 Penthalaz,Route de la Vuy 1305 Penthalaz ,46.606898,6.5265258,Tél: 021 863 03 33,Fax: 021 863 03 39,https://www.heviva.ch/institutions/detail/ems/venoge-la-site-de-penthalaz-ems.html,info@fondation-lavenoge.ch
212,"VENOGE PENTHALAZ, CAT de la",Route de la Vuy 1,1305 Penthalaz,Route de la Vuy 1 1305 Penthalaz ,46.6087019,6.5266845,Tél: 021 863 03 33,Fax: 021 866 02 39,https://www.heviva.ch/institutions/detail/ems/venoge-penthalaz-cat-de-la.html,info@fondation-lavenoge.ch
213,"VENOGE PENTHALAZ, LP de l'EMS la",Route de la Vuy 1,1305 Penthalaz,Route de la Vuy 1 1305 Penthalaz ,46.6087019,6.5266845,Tél: 021 863 03 33,Fax: 021 866 02 39,https://www.heviva.ch/institutions/detail/ems/venoge-penthalaz-lp-de-lems-la.html,info@fondation-lavenoge.ch
214,"VERGERS DE LA LONGERAIE, LP Les",Chemin de la Longeraie 11-13-15,1052 Le Mont-sur-Lausanne,Chemin de la Longeraie 11-13-15 1052 Le Mont-sur-Lausanne ,46.563909,6.629471,Tél: 021 651 66 78,Fax: 021 651 66 56,https://www.heviva.ch/institutions/detail/ems/vergers-de-la-longeraie-lp-les.html,astrid.grangier@paixdusoir.ch
215,"VERNEY, CAT le",Route du Lac 12B,1185 Mont-sur-Rolle,Route du Lac 12B 1185 Mont-sur-Rolle ,46.4663747,6.3454308,Tél: 021 545 99 48,,https://www.heviva.ch/institutions/detail/ems/verney-cat-le.html,info@bellesaison.ch
216,"VERNIE, EMS LA",Route du Marcolet 39,1023 Crissier,Route du Marcolet 39 1023 Crissier ,46.5447859,6.5744601,Tél: 021 637 73 73,Fax: 021 637 73 75,https://www.heviva.ch/institutions/detail/ems/vernie-ems-la.html,veinfo@fondationlaprimerose.ch